{
  "type": "FeatureCollection",
  "source_dxf": "input_10001759_bound.dxf",
  "coordinate_reference": "local_dxf_coordinates",
  "review_points": [
    {
      "point": [
        17822.1299,
        15095.5376
      ],
      "finding": "sidewalk; already excluded from recovered road"
    },
    {
      "point": [
        17837.1479,
        15196.7724
      ],
      "finding": "mixed road/sidewalk boundary; source sidewalk HATCH remains excluded"
    },
    {
      "point": [
        17789.6349,
        15763.9595
      ],
      "finding": "road; source sidewalk HATCH crosses a continuous road corridor"
    },
    {
      "point": [
        17893.5266,
        13904.621
      ],
      "finding": "road; sidewalk HATCH polygonization incorrectly covers the carriageway between parallel boundary lines"
    }
  ],
  "features": [
    {
      "type": "Feature",
      "id": "reviewed_upper_road_corridor",
      "properties": {
        "classification": "road",
        "evidence": "Expert-confirmed road point at 17789.6349,15763.9595; corridor interpolated between adjacent road sections at y=15760 and y=15820; clipped to work boundary",
        "requires_visual_confirmation": true
      },
      "geometry": {
        "type": "Polygon",
        "coordinates": [
          [
            [
              17799.3,
              15820.0
            ],
            [
              17800.8,
              15760.0
            ],
            [
              17789.7,
              15760.0
            ],
            [
              17788.314242867636,
              15811.96589246354
            ],
            [
              17788.333254,
              15813.030361
            ],
            [
              17788.31,
              15814.152
            ],
            [
              17788.129211169267,
              15820.0
            ],
            [
              17799.3,
              15820.0
            ]
          ]
        ]
      }
    },
    {
      "type": "Feature",
      "id": "reviewed_mixed_sidewalk_edge",
      "properties": {
        "classification": "sidewalk",
        "evidence": "Expert-reviewed sidewalk/road boundary at 17837.1479,15196.7724; original HATCH handle 628FA extended by 0.01 m to resolve the rounded boundary point",
        "source_handle": "628FA",
        "requires_visual_confirmation": true
      },
      "geometry": {
        "type": "Polygon",
        "coordinates": [
          [
            [
              17817.86576112135,
              15176.658762264846
            ],
            [
              17817.86567305742,
              15176.658886319641
            ],
            [
              17817.78060029943,
              15176.780679737883
            ],
            [
              17817.780514132937,
              15176.780805118036
            ],
            [
              17817.697304062072,
              15176.903878652907
            ],
            [
              17817.697219812955,
              15176.904005329403
            ],
            [
              17817.61589168806,
              15177.028330495721
            ],
            [
              17817.61580937582,
              15177.028458439238
            ],
            [
              17817.536382020164,
              15177.154006462133
            ],
            [
              17817.536301663855,
              15177.154135643059
            ],
            [
              17817.45879346078,
              15177.28087746463
            ],
            [
              17817.458715079,
              15177.281007853066
            ],
            [
              17817.38314396766,
              15177.408914139112
            ],
            [
              17817.38306757855,
              15177.40904570488
            ],
            [
              17817.30945104977,
              15177.538086851688
            ],
            [
              17817.308998546858,
              15177.538981450889
            ],
            [
              17817.30863789144,
              15177.539916862183
            ],
            [
              17817.308372708347,
              15177.54088368406
            ],
            [
              17817.308205662837,
              15177.541872199317
            ],
            [
              17817.30813843384,
              15177.54287247272
            ],
            [
              17817.308171697045,
              15177.543874450852
            ],
            [
              17817.308305118135,
              15177.544868063165
            ],
            [
              17817.30853735614,
              15177.545843323194
            ],
            [
              17817.308866076914,
              15177.546790428927
            ],
            [
              17817.309287976594,
              15177.547699861321
            ],
            [
              17817.309798814807,
              15177.548562479971
            ],
            [
              17817.31039345729,
              15177.549369614988
            ],
            [
              17817.311065927486,
              15177.550113154128
            ],
            [
              17817.311791859473,
              15177.55077120343
            ],
            [
              17817.31257870515,
              15177.551355052734
            ],
            [
              17817.313418910755,
              15177.551859097048
            ],
            [
              17817.314304410258,
              15177.55227849752
            ],
            [
              17817.315226702813,
              15177.55260922788
            ],
            [
              17817.316176934353,
              15177.552848113093
            ],
            [
              17817.3171459826,
              15177.552992859848
            ],
            [
              17817.31812454463,
              15177.553042078569
            ],
            [
              17818.189956741866,
              15177.55412756911
            ],
            [
              17819.014912475766,
              15177.555154695248
            ],
            [
              17818.955647130053,
              15177.564420580513
            ],
            [
              17818.95480985884,
              15177.56458838632
            ],
            [
              17818.95398995647,
              15177.56482701151
            ],
            [
              17818.791570491747,
              15177.619721493464
            ],
            [
              17818.790773936806,
              15177.62002919803
            ],
            [
              17818.790006537623,
              15177.620403738241
            ],
            [
              17818.639283838096,
              15177.702111476665
            ],
            [
              17818.63855119041,
              15177.702550121445
            ],
            [
              17818.637858636554,
              15177.703049672273
            ],
            [
              17818.50322085863,
              15177.80919181954
            ],
            [
              17818.502573448583,
              15177.809748633785
            ],
            [
              17818.50197590314,
              15177.810358651257
            ],
            [
              17818.38734290514,
              15177.937844973816
            ],
            [
              17818.386799581487,
              15177.938503746378
            ],
            [
              17818.386314441454,
              15177.939206470379
            ],
            [
              17818.29502366044,
              15178.084325318128
            ],
            [
              17818.294600241577,
              15178.085066869433
            ],
            [
              17818.29424163137,
              15178.085841840784
            ],
            [
              17818.228950916673,
              15178.244368208449
            ],
            [
              17818.22865973005,
              15178.245170948896
            ],
            [
              17818.22843809029,
              15178.245995605
            ],
            [
              17818.191048322587,
              15178.413314139365
            ],
            [
              17818.190897845845,
              15178.414154697884
            ],
            [
              17818.19081962937,
              15178.415005029618
            ],
            [
              17818.182419378263,
              15178.58624440141
            ],
            [
              17818.1824139924,
              15178.587098305894
            ],
            [
              17818.182481476415,
              15178.58794955661
            ],
            [
              17818.20331530769,
              15178.758124284888
            ],
            [
              17818.203455169507,
              15178.758966674672
            ],
            [
              17818.203666389276,
              15178.759794060968
            ],
            [
              17818.253127744596,
              15178.923949660935
            ],
            [
              17818.25340878214,
              15178.924756010596
            ],
            [
              17818.253757588187,
              15178.925535443861
            ],
            [
              17818.330406444493,
              15179.078892672245
            ],
            [
              17818.33082047561,
              15179.079639505631
            ],
            [
              17818.33129671276,
              15179.080348293366
            ],
            [
              17818.432901507247,
              15179.218442291814
            ],
            [
              17818.433436477793,
              15179.219107865543
            ],
            [
              17818.43402628083,
              15179.219725372026
            ],
            [
              17818.557628880906,
              15179.338535657458
            ],
            [
              17818.558269215693,
              15179.339100593947
            ],
            [
              17818.558955413024,
              15179.339608841028
            ],
            [
              17818.700957239693,
              15179.435676358393
            ],
            [
              17818.701684295946,
              15179.43612421002
            ],
            [
              17818.702446909552,
              15179.436508400542
            ],
            [
              17818.858713706817,
              15179.507036230112
            ],
            [
              17818.859506316945,
              15179.50735395808
            ],
            [
              17818.860323144017,
              15179.507602906682
            ],
            [
              17819.026305344025,
              15179.550537693869
            ],
            [
              17819.027140431892,
              15179.550716047814
            ],
            [
              17819.027987691243,
              15179.550822506577
            ],
            [
              17819.198852870904,
              15179.564914243503
            ],
            [
              17819.19982433876,
              15179.564946961815
            ],
            [
              17819.200794393826,
              15179.564885208662
            ],
            [
              17819.201753870824,
              15179.564729567499
            ],
            [
              17819.20269370442,
              15179.564481508858
            ],
            [
              17819.20360501488,
              15179.564143376447
            ],
            [
              17819.204479191954,
              15179.563718365009
            ],
            [
              17819.205307976245,
              15179.563210490136
            ],
            [
              17819.20608353722,
              15179.562624550335
            ],
            [
              17819.206798547235,
              15179.561966081685
            ],
            [
              17819.20744625072,
              15179.56124130553
            ],
            [
              17819.208020528047,
              15179.560457069701
            ],
            [
              17819.208515953324,
              15179.55962078382
            ],
            [
              17819.208927845677,
              15179.558740349285
            ],
            [
              17819.209252313456,
              15179.557824084617
            ],
            [
              17819.20948629103,
              15179.556880646873
            ],
            [
              17819.20962756773,
              15179.555918949844
            ],
            [
              17819.209674808742,
              15179.554948079838
            ],
            [
              17819.20967480874,
              15177.559127304567
            ],
            [
              17819.296989777264,
              15177.560502280641
            ],
            [
              17819.46377664943,
              15177.591987968639
            ],
            [
              17819.622782826,
              15177.651370163616
            ],
            [
              17819.769378984594,
              15177.736920006153
            ],
            [
              17819.899297109347,
              15177.846146789221
            ],
            [
              17820.00875475037,
              15177.975870472816
            ],
            [
              17820.094565146544,
              15178.122314268132
            ],
            [
              17820.154230004995,
              15178.281214595181
            ],
            [
              17820.18601223682,
              15178.447945213282
            ],
            [
              17820.18822289341,
              15178.5740804335
            ],
            [
              17820.179898393304,
              15179.560913760846
            ],
            [
              17819.991266026725,
              15201.922461497206
            ],
            [
              17819.991308978748,
              15201.92347551671
            ],
            [
              17819.991454492712,
              15201.9244799599
            ],
            [
              17819.9917010697,
              15201.9254644802
            ],
            [
              17819.992046169773,
              15201.92641893626
            ],
            [
              17819.992486238127,
              15201.927333496416
            ],
            [
              17819.993016741697,
              15201.928198739963
            ],
            [
              17819.993632215876,
              15201.929005754193
            ],
            [
              17819.994326320782,
              15201.929746226213
            ],
            [
              17819.995091906574,
              15201.930412528567
            ],
            [
              17819.995921087106,
              15201.930997797803
            ],
            [
              17819.99680532115,
              15201.931496005176
            ],
            [
              17819.997735500387,
              15201.931902018752
            ],
            [
              17819.998702043216,
              15201.932211656263
            ],
            [
              17820.168345333554,
              15201.977205547832
            ],
            [
              17820.168630318327,
              15201.977276670452
            ],
            [
              17820.339521872396,
              15202.017268831949
            ],
            [
              17820.33980882306,
              15202.017331554061
            ],
            [
              17820.511801204608,
              15202.052287482351
            ],
            [
              17820.512089873602,
              15202.052341749837
            ],
            [
              17820.68503469664,
              15202.082231286777
            ],
            [
              17820.68532483491,
              15202.08227705282
            ],
            [
              17820.859072891722,
              15202.107074411291
            ],
            [
              17820.859364248958,
              15202.107111636407
            ],
            [
              17821.03376563885,
              15202.12679542255
            ],
            [
              17821.03405796368,
              15202.126824074621
            ],
            [
              17821.208962222296,
              15202.1413773063
            ],
            [
              17821.209255262518,
              15202.141397360607
            ],
            [
              17821.384511491644,
              15202.150807482054
            ],
            [
              17821.384728783945,
              15202.150816780713
            ],
            [
              17822.007179519136,
              15202.1706749932
            ],
            [
              17822.00749838958,
              15202.17068007841
            ],
            [
              17822.008365237645,
              15202.170642436286
            ],
            [
              17822.181082249754,
              15202.155613925077
            ],
            [
              17822.181942571813,
              15202.15550128209
            ],
            [
              17822.182789891,
              15202.155314486263
            ],
            [
              17822.350315544,
              15202.110680664931
            ],
            [
              17822.35114348134,
              15202.110421122545
            ],
            [
              17822.35194580377,
              15202.110090787543
            ],
            [
              17822.50924477536,
              15202.037193215858
            ],
            [
              17822.510015442647,
              15202.036794575142
            ],
            [
              17822.510748652887,
              15202.036330629851
            ],
            [
              17822.65309300435,
              15201.937360391757
            ],
            [
              17822.653783237623,
              15201.93683463467
            ],
            [
              17822.654425297562,
              15201.936251023903
            ],
            [
              17822.77753658153,
              15201.814182870068
            ],
            [
              17822.77812563443,
              15201.813545799296
            ],
            [
              17822.778657245657,
              15201.812860064656
            ],
            [
              17822.878835103507,
              15201.671363000316
            ],
            [
              17822.87930527086,
              15201.670633764312
            ],
            [
              17822.87971045472,
              15201.66986651694
            ],
            [
              17822.953943838336,
              15201.51319352253
            ],
            [
              17822.954280988313,
              15201.512394039959
            ],
            [
              17822.95454756619,
              15201.511568341028
            ],
            [
              17823.000605241097,
              15201.344428540253
            ],
            [
              17823.000799239966,
              15201.343582841177
            ],
            [
              17823.000919199327,
              15201.342723508737
            ],
            [
              17823.017416808954,
              15201.170140626338
            ],
            [
              17823.017461700456,
              15201.16928775643
            ],
            [
              17823.062819387942,
              15196.574750483613
            ],
            [
              17823.93324223352,
              15196.594637554559
            ],
            [
              17823.933386297205,
              15196.594639807825
            ],
            [
              17825.346264051466,
              15196.60655823483
            ],
            [
              17829.766005922906,
              15196.673513524975
            ],
            [
              17829.947253287606,
              15196.676186188031
            ],
            [
              17837.14759476517,
              15196.787364783911
            ],
            [
              17837.14856905437,
              15196.787332307284
            ],
            [
              17837.149535552104,
              15196.787205121189
            ],
            [
              17837.150485073806,
              15196.78698443427
            ],
            [
              17837.15140859622,
              15196.786672343698
            ],
            [
              17837.15229734317,
              15196.786271815254
            ],
            [
              17837.153142868945,
              15196.785786655137
            ],
            [
              17837.153937138562,
              15196.785221473794
            ],
            [
              17837.154672604123,
              15196.78458164211
            ],
            [
              17837.155342276543,
              15196.78387324037
            ],
            [
              17837.155939791963,
              15196.783103000475
            ],
            [
              17837.15645947223,
              15196.782278241968
            ],
            [
              17837.156896378852,
              15196.78140680248
            ],
            [
              17837.15724635993,
              15196.780496963253
            ],
            [
              17837.157506089614,
              15196.779557370433
            ],
            [
              17837.157673099708,
              15196.778596952918
            ],
            [
              17837.157745803128,
              15196.7776248375
            ],
            [
              17837.17630911636,
              15196.06075203247
            ],
            [
              17831.23877,
              15195.907
            ],
            [
              17831.24933963914,
              15195.397192779234
            ],
            [
              17831.249158580995,
              15195.397183279625
            ],
            [
              17829.246693684912,
              15195.391968716282
            ],
            [
              17829.326100577255,
              15191.561915145805
            ],
            [
              17831.32799443097,
              15191.603419557216
            ],
            [
              17831.327994495947,
              15191.603419555373
            ],
            [
              17831.501306,
              15183.244056
            ],
            [
              17830.914217302576,
              15182.677134194066
            ],
            [
              17830.914051644093,
              15182.677193811245
            ],
            [
              17830.91318082551,
              15182.677605712168
            ],
            [
              17830.9123536807,
              15182.678099492317
            ],
            [
              17830.911577885454,
              15182.678670569472
            ],
            [
              17830.910860639066,
              15182.679313644112
            ],
            [
              17830.910208597485,
              15182.680022748584
            ],
            [
              17830.909627811572,
              15182.680791302486
            ],
            [
              17830.909123670954,
              15182.68161217374
            ],
            [
              17830.908700853986,
              15182.682477744758
            ],
            [
              17830.90836328436,
              15182.683379983155
            ],
            [
              17830.90811409468,
              15182.68431051627
            ],
            [
              17830.907955597395,
              15182.685260708875
            ],
            [
              17830.907889263333,
              15182.6862217433
            ],
            [
              17830.836022249525,
              15186.152602988606
            ],
            [
              17830.82890623868,
              15185.960336406617
            ],
            [
              17830.828837105135,
              15185.959475923377
            ],
            [
              17830.828694016684,
              15185.958624608778
            ],
            [
              17830.72097436757,
              15185.452489667618
            ],
            [
              17830.720758390526,
              15185.451653865746
            ],
            [
              17830.720471134366,
              15185.45083980509
            ],
            [
              17830.527375905494,
              15184.970745716337
            ],
            [
              17830.52701951089,
              15184.969959463364
            ],
            [
              17830.52659663373,
              15184.969206877317
            ],
            [
              17830.25387096817,
              15184.529437832463
            ],
            [
              17830.253384759777,
              15184.528724521695
            ],
            [
              17830.252838843437,
              15184.528055801873
            ],
            [
              17829.90859712068,
              15184.141696205405
            ],
            [
              17829.907995564616,
              15184.141077059905
            ],
            [
              17829.907342851686,
              15184.140512102664
            ],
            [
              17829.50182726135,
              15183.819057273084
            ],
            [
              17829.50112825564,
              15183.818550714226
            ],
            [
              17829.500388166227,
              15183.818106328683
            ],
            [
              17829.045663973182,
              15183.571120479439
            ],
            [
              17829.044776731676,
              15183.570693723179
            ],
            [
              17829.043851825358,
              15183.570356281778
            ],
            [
              17829.04289821952,
              15183.570111426114
            ],
            [
              17829.04192515763,
              15183.569961529618
            ],
            [
              17829.040942071766,
              15183.569908045265
            ],
            [
              17829.039958491154,
              15183.56995149149
            ],
            [
              17829.038983949824,
              15183.57009144716
            ],
            [
              17829.03802789418,
              15183.570326555659
            ],
            [
              17829.037099591453,
              15183.570654538034
            ],
            [
              17829.036208039848,
              15183.571072215096
            ],
            [
              17829.035361881335,
              15183.571575538223
            ],
            [
              17829.03456931789,
              15183.572159628611
            ],
            [
              17829.033838031974,
              15183.572818824563
            ],
            [
              17829.033175112076,
              15183.573546736374
            ],
            [
              17829.032586984,
              15183.574336308258
            ],
            [
              17829.03207934858,
              15183.575179886753
            ],
            [
              17829.031657126423,
              15183.576069294895
            ],
            [
              17829.0313244102,
              15183.576995911488
            ],
            [
              17829.03108442499,
              15183.577950754667
            ],
            [
              17829.03093949702,
              15183.57892456896
            ],
            [
              17829.030891031103,
              15183.579907915007
            ],
            [
              17829.030891031103,
              15185.513176655497
            ],
            [
              17829.018368543893,
              15185.472851226023
            ],
            [
              17828.973783259895,
              15185.29860145409
            ],
            [
              17828.973531309282,
              15185.297769265762
            ],
            [
              17828.973208021358,
              15185.29696210937
            ],
            [
              17828.942972150126,
              15185.230056651084
            ],
            [
              17828.920858592355,
              15185.15884566086
            ],
            [
              17828.920568457062,
              15185.158036055942
            ],
            [
              17828.92020983131,
              15185.157254374304
            ],
            [
              17828.833731829694,
              15184.988331395476
            ],
            [
              17828.758567306355,
              15184.822008525456
            ],
            [
              17828.75817512523,
              15184.821232503235
            ],
            [
              17828.75771701586,
              15184.82049348204
            ],
            [
              17828.717948032077,
              15184.762163542064
            ],
            [
              17828.68528300218,
              15184.69835686233
            ],
            [
              17828.684858538505,
              15184.697608885594
            ],
            [
              17828.6843713764,
              15184.696900146082
            ],
            [
              17828.56841580111,
              15184.542841718185
            ],
            [
              17828.46411193235,
              15184.38985721052
            ],
            [
              17828.46359135811,
              15184.389160777477
            ],
            [
              17828.463012254633,
              15184.388512197731
            ],
            [
              17828.415718848933,
              15184.339968744298
            ],
            [
              17828.374345555934,
              15184.285000240541
            ],
            [
              17828.37379929864,
              15184.284335980366
            ],
            [
              17828.373197986482,
              15184.283721112653
            ],
            [
              17828.23034263531,
              15184.149692711952
            ],
            [
              17828.099304833075,
              15184.015191350583
            ],
            [
              17828.09867157848,
              15184.014595527506
            ],
            [
              17828.097988960275,
              15184.014056965616
            ],
            [
              17828.045299887537,
              15183.976083649757
            ],
            [
              17827.997228496944,
              15183.930982562908
            ],
            [
              17827.99657657747,
              15183.930421635456
            ],
            [
              17827.995878872516,
              15183.9299187971
            ],
            [
              17827.851705775374,
              15183.835157564923
            ],
            [
              17827.851705775374,
              15183.329808771847
            ],
            [
              17827.85165830188,
              15183.328835521515
            ],
            [
              17827.851516332135,
              15183.327871511903
            ],
            [
              17827.8512812141,
              15183.32692589599
            ],
            [
              17827.850955180158,
              15183.326007652118
            ],
            [
              17827.850541325894,
              15183.325125498735
            ],
            [
              17827.850043580736,
              15183.324287811623
            ],
            [
              17827.84946667062,
              15183.32350254437
            ],
            [
              17827.84881607314,
              15183.322777152849
            ],
            [
              17827.848097965518,
              15183.322118524438
            ],
            [
              17827.84731916597,
              15183.321532912614
            ],
            [
              17827.846487068968,
              15183.321025877587
            ],
            [
              17827.84560957502,
              15183.3206022335
            ],
            [
              17827.84469501567,
              15183.320266002727
            ],
            [
              17827.843752074376,
              15183.320020377678
            ],
            [
              17827.842789704093,
              15183.31986769049
            ],
            [
              17827.84181704223,
              15183.319809390881
            ],
            [
              17827.840843323924,
              15183.31984603239
            ],
            [
              17827.3253005783,
              15183.364475382636
            ],
            [
              17827.32444455393,
              15183.364586886593
            ],
            [
              17827.323601335833,
              15183.364771803028
            ],
            [
              17827.062899534816,
              15183.433860999634
            ],
            [
              17826.88954141301,
              15183.391922738027
            ],
            [
              17826.701453866575,
              15183.338532878226
            ],
            [
              17826.700607888462,
              15183.338332036114
            ],
            [
              17826.699747661663,
              15183.338205440787
            ],
            [
              17826.643581685203,
              15183.332420920042
            ],
            [
              17826.587915931097,
              15183.318954432669
            ],
            [
              17826.58707209866,
              15183.318788344037
            ],
            [
              17826.5862171161,
              15183.318695373991
            ],
            [
              17826.378289611872,
              15183.305098551622
            ],
            [
              17826.181288013686,
              15183.284809403222
            ],
            [
              17826.18042004166,
              15183.284758011758
            ],
            [
              17826.179550886416,
              15183.284782212686
            ],
            [
              17826.126054372446,
              15183.288604352074
            ],
            [
              17826.07177967464,
              15183.285055213984
            ],
            [
              17826.07081777886,
              15183.285038688235
            ],
            [
              17826.06985874633,
              15183.285114669845
            ],
            [
              17826.06891145306,
              15183.285282455592
            ],
            [
              17826.067984666406,
              15183.28554049259
            ],
            [
              17826.067086963933,
              15183.285886392663
            ],
            [
              17826.06622665402,
              15183.286316954453
            ],
            [
              17826.065411698986,
              15183.286828193033
            ],
            [
              17826.064649641372,
              15183.28741537681
            ],
            [
              17826.06394753415,
              15183.288073071297
            ],
            [
              17826.06331187543,
              15183.288795189426
            ],
            [
              17826.06274854835,
              15183.289575047871
            ],
            [
              17826.062262766587,
              15183.290405428914
            ],
            [
              17826.06185902614,
              15183.291278647239
            ],
            [
              17826.06154106369,
              15183.292186621069
            ],
            [
              17826.061311822028,
              15183.293120946952
            ],
            [
              17826.061295805022,
              15183.293231125912
            ],
            [
              17825.65967406229,
              15183.321925599035
            ],
            [
              17825.658810294786,
              15183.322025209394
            ],
            [
              17825.65795844525,
              15183.322199476112
            ],
            [
              17825.308273259318,
              15183.409732205728
            ],
            [
              17825.308023040416,
              15183.40902321702
            ],
            [
              17825.307613634755,
              15183.408144971
            ],
            [
              17825.307121150454,
              15183.407310472177
            ],
            [
              17825.30655021159,
              15183.406527555908
            ],
            [
              17825.305906178874,
              15183.40580357322
            ],
            [
              17825.30519509932,
              15183.405145321796
            ],
            [
              17825.304423649457,
              15183.40455898215
            ],
            [
              17825.303599072653,
              15183.404050059598
            ],
            [
              17825.3027291111,
              15183.403623332559
            ],
            [
              17825.30182193312,
              15183.403282807698
            ],
            [
              17825.30088605647,
              15183.403031682301
            ],
            [
              17825.299930268364,
              15183.40287231426
            ],
            [
              17825.298963542984,
              15183.402806199925
            ],
            [
              17825.297994957185,
              15183.402833960065
            ],
            [
              17825.29703360531,
              15183.40295533403
            ],
            [
              17825.296088513765,
              15183.403169182206
            ],
            [
              17825.29516855629,
              15183.403473496708
            ],
            [
              17825.22459491833,
              15183.430678456501
            ],
            [
              17825.15235614961,
              15183.448761168795
            ],
            [
              17825.15152265816,
              15183.449008774387
            ],
            [
              17825.150713826137,
              15183.449327846913
            ],
            [
              17824.987329442767,
              15183.522140338157
            ],
            [
              17824.814135160497,
              15183.588903843933
            ],
            [
              17824.813346739997,
              15183.589247401389
            ],
            [
              17824.81259075461,
              15183.58965743152
            ],
            [
              17824.745242897774,
              15183.630026563718
            ],
            [
              17824.674646908312,
              15183.661487770467
            ],
            [
              17824.673868850612,
              15183.661875897686
            ],
            [
              17824.673127449485,
              15183.662330145293
            ],
            [
              17824.52702791528,
              15183.760827303196
            ],
            [
              17824.370407524504,
              15183.854707488217
            ],
            [
              17824.369689565792,
              15183.855180958277
            ],
            [
              17824.36901494405,
              15183.8557143663
            ],
            [
              17824.307388990448,
              15183.908903133684
            ],
            [
              17824.240965277582,
              15183.953684569642
            ],
            [
              17824.24026613814,
              15183.95420150345
            ],
            [
              17824.23961454599,
              15183.954777215353
            ],
            [
              17824.114700855334,
              15184.075210408402
            ],
            [
              17823.97873992095,
              15184.192556982194
            ],
            [
              17823.978113625944,
              15184.19314638289
            ],
            [
              17823.977540289998,
              15184.193787416823
            ],
            [
              17823.924101132925,
              15184.258973557533
            ],
            [
              17823.864401289014,
              15184.316532042825
            ],
            [
              17823.863802170305,
              15184.317162180347
            ],
            [
              17823.863260054473,
              15184.317841979544
            ],
            [
              17823.762663628386,
              15184.455898218448
            ],
            [
              17823.650698622365,
              15184.592475347214
            ],
            [
              17823.650182486086,
              15184.593163273048
            ],
            [
              17823.64972736702,
              15184.593893002622
            ],
            [
              17823.606816919433,
              15184.669778684385
            ],
            [
              17823.556320963577,
              15184.73907818156
            ],
            [
              17823.555839949106,
              15184.739802503036
            ],
            [
              17823.555423672544,
              15184.740565870803
            ],
            [
              17823.481430819942,
              15184.891519779583
            ],
            [
              17823.395970963174,
              15185.042652658838
            ],
            [
              17823.39558022756,
              15185.043418794785
            ],
            [
              17823.395256765427,
              15185.044215670472
            ],
            [
              17823.365002332514,
              15185.129047252194
            ],
            [
              17823.326023245252,
              15185.208569062426
            ],
            [
              17823.32565989001,
              15185.209404667423
            ],
            [
              17823.3253741034,
              15185.210269877658
            ],
            [
              17823.325168258194,
              15185.211157509615
            ],
            [
              17823.32504406345,
              15185.212060193615
            ],
            [
              17823.325002550315,
              15185.212970435012
            ],
            [
              17823.325002550315,
              15185.241204198013
            ],
            [
              17823.22207926461,
              15185.52979480383
            ],
            [
              17823.22182546841,
              15185.530616525253
            ],
            [
              17823.22164321531,
              15185.531457014647
            ],
            [
              17823.1460389461,
              15185.970522495687
            ],
            [
              17823.201632723867,
              15179.368190698204
            ],
            [
              17823.201916007067,
              15179.367326147727
            ],
            [
              17823.202129831123,
              15179.366358689827
            ],
            [
              17823.20224686707,
              15179.365374820882
            ],
            [
              17823.226419000526,
              15179.014783866842
            ],
            [
              17823.310428787023,
              15178.674443815658
            ],
            [
              17823.451823087555,
              15178.353668744236
            ],
            [
              17823.6463726133,
              15178.062053455356
            ],
            [
              17823.888258132978,
              15177.808320544485
            ],
            [
              17824.170244533656,
              15177.600059495553
            ],
            [
              17824.483897232556,
              15177.443499669449
            ],
            [
              17824.81983446638,
              15177.343323975761
            ],
            [
              17825.1680079122,
              15177.302528800772
            ],
            [
              17825.33023293973,
              15177.311708811449
            ],
            [
              17825.330232939734,
              15181.362467412715
            ],
            [
              17825.33028360844,
              15181.36347280163
            ],
            [
              17825.330435101107,
              15181.364468002192
            ],
            [
              17825.330685882538,
              15181.365442929296
            ],
            [
              17825.33103341138,
              15181.366387703285
            ],
            [
              17825.331474165872,
              15181.36729275006
            ],
            [
              17825.332003679516,
              15181.368148898113
            ],
            [
              17825.332616586362,
              15181.368947471457
            ],
            [
              17825.333306675362,
              15181.369680377562
            ],
            [
              17825.33406695334,
              15181.37034018934
            ],
            [
              17825.334889715832,
              15181.370920220434
            ],
            [
              17825.335766625172,
              15181.371414592955
            ],
            [
              17825.336688794996,
              15181.371818297062
            ],
            [
              17825.337646880267,
              15181.372127241722
            ],
            [
              17825.338631171995,
              15181.372338296167
            ],
            [
              17825.339631695624,
              15181.372449321627
            ],
            [
              17825.340638312107,
              15181.372459192999
            ],
            [
              17825.34164082065,
              15181.372367810249
            ],
            [
              17825.690423170614,
              15181.322769396245
            ],
            [
              17825.69127402806,
              15181.322610564346
            ],
            [
              17825.692107963354,
              15181.322378750005
            ],
            [
              17826.027128187765,
              15181.213426560707
            ],
            [
              17826.027938953182,
              15181.213123500644
            ],
            [
              17826.02872047458,
              15181.212751465342
            ],
            [
              17826.339957679465,
              15181.047704403523
            ],
            [
              17826.3407041018,
              15181.04726618022
            ],
            [
              17826.341409832974,
              15181.04676505202
            ],
            [
              17826.61955450563,
              15180.830559891603
            ],
            [
              17826.620214258408,
              15180.829999612894
            ],
            [
              17826.620823090016,
              15180.829384381199
            ],
            [
              17826.85755555876,
              15180.568488101886
            ],
            [
              17826.858108907913,
              15180.567822526438
            ],
            [
              17826.858602629003,
              15180.567111593635
            ],
            [
              17827.046841915442,
              15180.26932794506
            ],
            [
              17827.047272309574,
              15180.268576981109
            ],
            [
              17827.047636152296,
              15180.267791612128
            ],
            [
              17827.18175177267,
              15179.942027693485
            ],
            [
              17827.182046338126,
              15179.941213803348
            ],
            [
              17827.182269419474,
              15179.940377489605
            ],
            [
              17827.258249799816,
              15179.596377326638
            ],
            [
              17827.258399725757,
              15179.595524854834
            ],
            [
              17827.25847537307,
              15179.594662611571
            ],
            [
              17827.274047840616,
              15179.24271569999
            ],
            [
              17827.274048642565,
              15179.241850145068
            ],
            [
              17827.273974593136,
              15179.240987763107
            ],
            [
              17827.26225705288,
              15179.150621234376
            ],
            [
              17825.340233,
              15177.29462
            ],
            [
              17825.340661292154,
              15177.281131927504
            ],
            [
              17824.569990422562,
              15176.536934037451
            ],
            [
              17824.569268992258,
              15176.536301384413
            ],
            [
              17824.5684902476,
              15176.535740788031
            ],
            [
              17824.56766135857,
              15176.535257409783
            ],
            [
              17824.566789956854,
              15176.534855700187
            ],
            [
              17824.565884065545,
              15176.534539357832
            ],
            [
              17824.56495202529,
              15176.534311295316
            ],
            [
              17824.564002417486,
              15176.53417361244
            ],
            [
              17824.56304398529,
              15176.53412757686
            ],
            [
              17817.97368044171,
              15176.53412757686
            ],
            [
              17817.960787,
              15176.544128
            ],
            [
              17817.948588982894,
              15176.543943907503
            ],
            [
              17817.86576112135,
              15176.658762264846
            ]
          ],
          [
            [
              17830.776468831682,
              15189.02505920685
            ],
            [
              17829.06356762011,
              15189.069122973311
            ],
            [
              17829.24476945898,
              15188.99275614951
            ],
            [
              17829.245549742143,
              15188.992386867729
            ],
            [
              17829.24629526917,
              15188.991951666276
            ],
            [
              17829.68151791965,
              15188.712027844529
            ],
            [
              17829.68222313479,
              15188.711529966575
            ],
            [
              17829.682882782705,
              15188.710973122359
            ],
            [
              17830.06352663327,
              15188.360421613312
            ],
            [
              17830.06413579819,
              15188.359809952497
            ],
            [
              17830.064689940555,
              15188.359148033249
            ],
            [
              17830.379429732722,
              15187.948398760951
            ],
            [
              17830.379924722998,
              15187.94769151596
            ],
            [
              17830.38035687247,
              15187.946944215693
            ],
            [
              17830.61982818463,
              15187.488218162236
            ],
            [
              17830.620194272866,
              15187.487436375657
            ],
            [
              17830.620491571743,
              15187.486625928725
            ],
            [
              17830.777569437854,
              15186.993571524581
            ],
            [
              17830.777795731865,
              15186.992738456833
            ],
            [
              17830.777949334642,
              15186.991888976381
            ],
            [
              17830.825902488585,
              15186.640712173457
            ],
            [
              17830.776468831682,
              15189.02505920685
            ]
          ]
        ]
      }
    },
    {
      "type": "Feature",
      "id": "reviewed_lower_road_corridor",
      "properties": {
        "classification": "road",
        "evidence": "Expert-confirmed road point at 17893.5266,13904.621; corridor follows the two parallel street-boundary alignments through y=13880..13925; inset from boundary lines to avoid adjacent plantable area",
        "requires_visual_confirmation": true
      },
      "geometry": {
        "type": "Polygon",
        "coordinates": [
          [
            [
              17894.04,
              13880.0
            ],
            [
              17912.7,
              13880.0
            ],
            [
              17901.0,
              13925.0
            ],
            [
              17882.67,
              13925.0
            ],
            [
              17894.04,
              13880.0
            ]
          ]
        ]
      }
    }
  ]
}
